start=new Date('2022-08-13T00:00:00.000Z').valueOf();
sats=[{"COUNTRY_CODE":"US","REV_AT_EPOCH":"3972","RA_OF_ASC_NODE":"337.3058","EPOCH":"2022-08-12T17:31:17.033664","RCS_SIZE":"LARGE","EPHEMERIS_TYPE":"0","NORAD_CAT_ID":"50199","MEAN_MOTION":"15.08844258","SITE":"AFWTR","CLASSIFICATION_TYPE":"U","ECCENTRICITY":"0.00017740","PERIOD":"95.437","CENTER_NAME":"EARTH","SEMIMAJOR_AXIS":"6917.867","LAUNCH_DATE":"2021-12-18","MEAN_MOTION_DOT":"0.00003224","TLE_LINE2":"2 50199  53.2180 337.3058 0001774  57.0810 303.0353 15.08844258 39727","GP_ID":"210108194","ELEMENT_SET_NO":"999","TLE_LINE1":"1 50199U 21125AV  22224.73005826  .00003224  00000-0  22053-3 0  9994","REF_FRAME":"TEME","OBJECT_NAME":"STARLINK-3270","MEAN_ANOMALY":"303.0353","FILE":"3535519","BSTAR":"0.00022053000000","TIME_SYSTEM":"UTC","OBJECT_TYPE":"PAYLOAD","MEAN_ELEMENT_THEORY":"SGP4","ARG_OF_PERICENTER":"57.0810","DECAY_DATE":null,"OBJECT_ID":"2021-125AV","APOAPSIS":"540.960","INCLINATION":"53.2180","PERIAPSIS":"538.505","MEAN_MOTION_DDOT":"0.0000000000000"},{"INCLINATION":"53.2194","OBJECT_ID":"2021-125AW","DECAY_DATE":null,"APOAPSIS":"540.862","PERIAPSIS":"538.658","MEAN_MOTION_DDOT":"0.0000000000000","FILE":"3535519","OBJECT_NAME":"STARLINK-3235","MEAN_ANOMALY":"301.5049","MEAN_ELEMENT_THEORY":"SGP4","ARG_OF_PERICENTER":"58.6098","OBJECT_TYPE":"PAYLOAD","TIME_SYSTEM":"UTC","BSTAR":"0.00015689000000","CENTER_NAME":"EARTH","SEMIMAJOR_AXIS":"6917.895","PERIOD":"95.438","TLE_LINE1":"1 50200U 21125AW  22224.75582273  .00002209  00000-0  15689-3 0  9994","ELEMENT_SET_NO":"999","REF_FRAME":"TEME","GP_ID":"210107944","TLE_LINE2":"2 50200  53.2194 337.1973 0001593  58.6098 301.5049 15.08835069 39740","LAUNCH_DATE":"2021-12-18","MEAN_MOTION_DOT":"0.00002209","EPOCH":"2022-08-12T18:08:23.083872","RCS_SIZE":"LARGE","EPHEMERIS_TYPE":"0","MEAN_MOTION":"15.08835069","NORAD_CAT_ID":"50200","RA_OF_ASC_NODE":"337.1973","REV_AT_EPOCH":"3974","COUNTRY_CODE":"US","CLASSIFICATION_TYPE":"U","SITE":"AFWTR","ECCENTRICITY":"0.00015930"},{"CLASSIFICATION_TYPE":"U","SITE":"AFWTR","ECCENTRICITY":"0.00016340","RCS_SIZE":"LARGE","EPHEMERIS_TYPE":"0","EPOCH":"2022-08-12T16:17:06.493632","MEAN_MOTION":"15.08839513","NORAD_CAT_ID":"50201","REV_AT_EPOCH":"3972","RA_OF_ASC_NODE":"337.5582","COUNTRY_CODE":"US","TLE_LINE1":"1 50201U 21125AX  22224.67854738  .00004056  00000-0  27276-3 0  9991","ELEMENT_SET_NO":"999","REF_FRAME":"TEME","TLE_LINE2":"2 50201  53.2172 337.5582 0001634  54.0272 306.0872 15.08839513 39727","GP_ID":"210107193","LAUNCH_DATE":"2021-12-18","MEAN_MOTION_DOT":"0.00004056","CENTER_NAME":"EARTH","SEMIMAJOR_AXIS":"6917.882","PERIOD":"95.438","ARG_OF_PERICENTER":"54.0272","MEAN_ELEMENT_THEORY":"SGP4","OBJECT_TYPE":"PAYLOAD","TIME_SYSTEM":"UTC","BSTAR":"0.00027276000000","FILE":"3535519","OBJECT_NAME":"STARLINK-3255","MEAN_ANOMALY":"306.0872","PERIAPSIS":"538.616","MEAN_MOTION_DDOT":"0.0000000000000","INCLINATION":"53.2172","OBJECT_ID":"2021-125AX","DECAY_DATE":null,"APOAPSIS":"540.877"},{"BSTAR":"0.00015875000000","TIME_SYSTEM":"UTC","OBJECT_TYPE":"PAYLOAD","ARG_OF_PERICENTER":"56.3372","MEAN_ELEMENT_THEORY":"SGP4","OBJECT_NAME":"STARLINK-3256","MEAN_ANOMALY":"303.7774","FILE":"3535519","PERIAPSIS":"538.638","MEAN_MOTION_DDOT":"0.0000000000000","DECAY_DATE":null,"OBJECT_ID":"2021-125AY","APOAPSIS":"540.870","INCLINATION":"53.2178","SITE":"AFWTR","CLASSIFICATION_TYPE":"U","ECCENTRICITY":"0.00016130","COUNTRY_CODE":"US","REV_AT_EPOCH":"3972","RA_OF_ASC_NODE":"337.3237","EPHEMERIS_TYPE":"0","RCS_SIZE":"LARGE","EPOCH":"2022-08-12T17:25:59.228544","NORAD_CAT_ID":"50202","MEAN_MOTION":"15.08837216","LAUNCH_DATE":"2021-12-18","MEAN_MOTION_DOT":"0.00002239","TLE_LINE2":"2 50202  53.2178 337.3237 0001613  56.3372 303.7774 15.08837216 39725","GP_ID":"210107443","ELEMENT_SET_NO":"999","TLE_LINE1":"1 50202U 21125AY  22224.72637996  .00002239  00000-0  15875-3 0  9996","REF_FRAME":"TEME","PERIOD":"95.438","CENTER_NAME":"EARTH","SEMIMAJOR_AXIS":"6917.889"},{"PERIAPSIS":"538.705","MEAN_MOTION_DDOT":"0.0000000000000","DECAY_DATE":null,"OBJECT_ID":"2021-125AZ","APOAPSIS":"540.797","INCLINATION":"53.2177","BSTAR":"0.00041499000000","TIME_SYSTEM":"UTC","OBJECT_TYPE":"PAYLOAD","ARG_OF_PERICENTER":"61.6405","MEAN_ELEMENT_THEORY":"SGP4","OBJECT_NAME":"STARLINK-3257","MEAN_ANOMALY":"298.4740","FILE":"3535519","MEAN_MOTION_DOT":"0.00006322","LAUNCH_DATE":"2021-12-18","TLE_LINE2":"2 50203  53.2177 337.2265 0001512  61.6405 298.4740 15.08838201 39794","GP_ID":"210107694","ELEMENT_SET_NO":"999","TLE_LINE1":"1 50203U 21125AZ  22224.75215964  .00006322  00000-0  41499-3 0  9995","REF_FRAME":"TEME","PERIOD":"95.438","CENTER_NAME":"EARTH","SEMIMAJOR_AXIS":"6917.886","SITE":"AFWTR","CLASSIFICATION_TYPE":"U","ECCENTRICITY":"0.00015120","COUNTRY_CODE":"US","REV_AT_EPOCH":"3979","RA_OF_ASC_NODE":"337.2265","RCS_SIZE":"LARGE","EPOCH":"2022-08-12T18:03:06.592896","EPHEMERIS_TYPE":"0","NORAD_CAT_ID":"50203","MEAN_MOTION":"15.08838201"},{"REF_FRAME":"TEME","TLE_LINE1":"1 50204U 21125BA  22224.73373730  .00001972  00000-0  14195-3 0  9999","ELEMENT_SET_NO":"999","TLE_LINE2":"2 50204  53.2188 337.3062 0001673  52.6009 307.5135 15.08840932 39784","GP_ID":"210108445","LAUNCH_DATE":"2021-12-18","MEAN_MOTION_DOT":"0.00001972","SEMIMAJOR_AXIS":"6917.878","CENTER_NAME":"EARTH","PERIOD":"95.437","ECCENTRICITY":"0.00016730","SITE":"AFWTR","CLASSIFICATION_TYPE":"U","MEAN_MOTION":"15.08840932","NORAD_CAT_ID":"50204","EPOCH":"2022-08-12T17:36:34.902720","RCS_SIZE":"LARGE","EPHEMERIS_TYPE":"0","REV_AT_EPOCH":"3978","RA_OF_ASC_NODE":"337.3062","COUNTRY_CODE":"US","MEAN_MOTION_DDOT":"0.0000000000000","PERIAPSIS":"538.585","INCLINATION":"53.2188","APOAPSIS":"540.900","OBJECT_ID":"2021-125BA","DECAY_DATE":null,"MEAN_ELEMENT_THEORY":"SGP4","ARG_OF_PERICENTER":"52.6009","OBJECT_TYPE":"PAYLOAD","TIME_SYSTEM":"UTC","BSTAR":"0.00014195000000","FILE":"3535519","MEAN_ANOMALY":"307.5135","OBJECT_NAME":"STARLINK-3254"},{"SITE":"AFWTR","CLASSIFICATION_TYPE":"U","ECCENTRICITY":"0.00014830","EPOCH":"2022-08-12T22:00:01.999584","RCS_SIZE":"LARGE","EPHEMERIS_TYPE":"0","MEAN_MOTION":"15.08886313","NORAD_CAT_ID":"50205","REV_AT_EPOCH":"130","RA_OF_ASC_NODE":"306.4656","COUNTRY_CODE":"US","TLE_LINE1":"1 50205U 21125BB  22224.91668981 -.00072979  00000-0 -46083-2 0  9992","ELEMENT_SET_NO":"999","REF_FRAME":"TEME","TLE_LINE2":"2 50205  53.2174 306.4656 0001483  50.1391 183.9952 15.08886313  1305","GP_ID":"210106693","LAUNCH_DATE":"2021-12-18","MEAN_MOTION_DOT":"-0.00072979","CENTER_NAME":"EARTH","SEMIMAJOR_AXIS":"6917.739","PERIOD":"95.435","MEAN_ELEMENT_THEORY":"SGP4","ARG_OF_PERICENTER":"50.1391","OBJECT_TYPE":"PAYLOAD","TIME_SYSTEM":"UTC","BSTAR":"-0.00460830000000","FILE":"3535519","OBJECT_NAME":"STARLINK-3260","MEAN_ANOMALY":"183.9952","PERIAPSIS":"538.578","MEAN_MOTION_DDOT":"0.0000000000000","INCLINATION":"53.2174","OBJECT_ID":"2021-125BB","DECAY_DATE":null,"APOAPSIS":"540.630"},{"RCS_SIZE":"LARGE","EPOCH":"2022-08-12T17:41:53.605536","EPHEMERIS_TYPE":"0","NORAD_CAT_ID":"50206","MEAN_MOTION":"15.08840530","COUNTRY_CODE":"US","RA_OF_ASC_NODE":"337.2871","REV_AT_EPOCH":"3765","SITE":"AFWTR","CLASSIFICATION_TYPE":"U","ECCENTRICITY":"0.00015820","CENTER_NAME":"EARTH","SEMIMAJOR_AXIS":"6917.879","PERIOD":"95.438","ELEMENT_SET_NO":"999","TLE_LINE1":"1 50206U 21125BC  22224.73742599  .00004515  00000-0  30157-3 0  9996","REF_FRAME":"TEME","LAUNCH_DATE":"2021-12-18","MEAN_MOTION_DOT":"0.00004515","TLE_LINE2":"2 50206  53.2186 337.2871 0001582  58.0725 302.0421 15.08840530 37651","GP_ID":"210106943","FILE":"3535519","OBJECT_NAME":"STARLINK-3258","MEAN_ANOMALY":"302.0421","OBJECT_TYPE":"PAYLOAD","ARG_OF_PERICENTER":"58.0725","MEAN_ELEMENT_THEORY":"SGP4","BSTAR":"0.00030157000000","TIME_SYSTEM":"UTC","INCLINATION":"53.2186","DECAY_DATE":null,"OBJECT_ID":"2021-125BC","APOAPSIS":"540.838","PERIAPSIS":"538.649","MEAN_MOTION_DDOT":"0.0000000000000"},{"ARG_OF_PERICENTER":"45.6250","MEAN_ELEMENT_THEORY":"SGP4","OBJECT_TYPE":"PAYLOAD","TIME_SYSTEM":"UTC","BSTAR":"0.00029412000000","FILE":"3535519","OBJECT_NAME":"STARLINK-3262","MEAN_ANOMALY":"314.4907","PERIAPSIS":"538.351","MEAN_MOTION_DDOT":"0.0000000000000","INCLINATION":"53.2195","OBJECT_ID":"2021-125BD","DECAY_DATE":null,"APOAPSIS":"541.145","CLASSIFICATION_TYPE":"U","SITE":"AFWTR","ECCENTRICITY":"0.00020200","RCS_SIZE":"LARGE","EPHEMERIS_TYPE":"0","EPOCH":"2022-08-12T17:47:11.976576","MEAN_MOTION":"15.08839138","NORAD_CAT_ID":"50207","REV_AT_EPOCH":"3772","RA_OF_ASC_NODE":"337.2679","COUNTRY_CODE":"US","TLE_LINE1":"1 50207U 21125BD  22224.74111084  .00004396  00000-0  29412-3 0  9996","ELEMENT_SET_NO":"999","REF_FRAME":"TEME","GP_ID":"210108195","TLE_LINE2":"2 50207  53.2195 337.2679 0002020  45.6250 314.4907 15.08839138 37727","LAUNCH_DATE":"2021-12-18","MEAN_MOTION_DOT":"0.00004396","CENTER_NAME":"EARTH","SEMIMAJOR_AXIS":"6917.883","PERIOD":"95.438"},{"SEMIMAJOR_AXIS":"6917.900","CENTER_NAME":"EARTH","PERIOD":"95.438","REF_FRAME":"TEME","TLE_LINE1":"1 50803U 22001A   22224.52674779  .00002127  00000-0  15171-3 0  9990","ELEMENT_SET_NO":"999","TLE_LINE2":"2 50803  53.2172 268.2184 0001838  51.8054 308.3103 15.08833544 34648","GP_ID":"210049852","LAUNCH_DATE":"2022-01-06","MEAN_MOTION_DOT":"0.00002127","MEAN_MOTION":"15.08833544","NORAD_CAT_ID":"50803","EPHEMERIS_TYPE":"0","RCS_SIZE":"LARGE","EPOCH":"2022-08-12T12:38:31.009056","RA_OF_ASC_NODE":"268.2184","REV_AT_EPOCH":"3464","COUNTRY_CODE":"US","ECCENTRICITY":"0.00018380","CLASSIFICATION_TYPE":"U","SITE":"AFETR","INCLINATION":"53.2172","APOAPSIS":"541.037","OBJECT_ID":"2022-001A","DECAY_DATE":null,"MEAN_MOTION_DDOT":"0.0000000000000","PERIAPSIS":"538.494","FILE":"3535130","MEAN_ANOMALY":"308.3103","OBJECT_NAME":"STARLINK-3321","MEAN_ELEMENT_THEORY":"SGP4","ARG_OF_PERICENTER":"51.8054","OBJECT_TYPE":"PAYLOAD","TIME_SYSTEM":"UTC","BSTAR":"0.00015171000000"}];
